{
    "links": {
        "self": "http://www.neowsapp.com/rest/v1/neo/3604482?api_key=iIulBulltgU6a56xZRHN4H3l9WmuAYTsLGpBGhQ2"
    },
    "id": "3604482",
    "neo_reference_id": "3604482",
    "name": "(2012 KM11)",
    "designation": "2012 KM11",
    "nasa_jpl_url": "http://ssd.jpl.nasa.gov/sbdb.cgi?sstr=3604482",
    "absolute_magnitude_h": 24.5,
    "estimated_diameter": {
        "kilometers": {
            "estimated_diameter_min": 0.0334622374,
            "estimated_diameter_max": 0.0748238376
        },
        "meters": {
            "estimated_diameter_min": 33.4622374455,
            "estimated_diameter_max": 74.8238376074
        },
        "miles": {
            "estimated_diameter_min": 0.0207924639,
            "estimated_diameter_max": 0.0464933628
        },
        "feet": {
            "estimated_diameter_min": 109.7842471007,
            "estimated_diameter_max": 245.4850393757
        }
    },
    "is_potentially_hazardous_asteroid": false,
    "close_approach_data": [
        {
            "close_approach_date": "1998-06-10",
            "close_approach_date_full": "1998-Jun-10 09:51",
            "epoch_date_close_approach": 897472260000,
            "relative_velocity": {
                "kilometers_per_second": "6.0622192891",
                "kilometers_per_hour": "21823.9894408307",
                "miles_per_hour": "13560.5783278317"
            },
            "miss_distance": {
                "astronomical": "0.0967922237",
                "lunar": "37.6521750193",
                "kilometers": "14479910.498083519",
                "miles": "8997399.1685658022"
            },
            "orbiting_body": "Mars"
        },
        {
            "close_approach_date": "1999-09-29",
            "close_approach_date_full": "1999-Sep-29 14:13",
            "epoch_date_close_approach": 938614380000,
            "relative_velocity": {
                "kilometers_per_second": "17.843616878",
                "kilometers_per_hour": "64237.0207607906",
                "miles_per_hour": "39914.3865943924"
            },
            "miss_distance": {
                "astronomical": "0.4566507483",
                "lunar": "177.6371410887",
                "kilometers": "68313979.279586121",
                "miles": "42448338.3687296298"
            },
            "orbiting_body": "Earth"
        },
        {
            "close_approach_date": "2004-05-22",
            "close_approach_date_full": "2004-May-22 02:04",
            "epoch_date_close_approach": 1085191440000,
            "relative_velocity": {
                "kilometers_per_second": "17.5220238509",
                "kilometers_per_hour": "63079.2858631075",
                "miles_per_hour": "39195.0151519959"
            },
            "miss_distance": {
                "astronomical": "0.4178905875",
                "lunar": "162.5594385375",
                "kilometers": "62515541.783048625",
                "miles": "38845356.380876025"
            },
            "orbiting_body": "Earth"
        },
        {
            "close_approach_date": "2012-06-14",
            "close_approach_date_full": "2012-Jun-14 21:54",
            "epoch_date_close_approach": 1339710840000,
            "relative_velocity": {
                "kilometers_per_second": "5.9359545253",
                "kilometers_per_hour": "21369.4362909951",
                "miles_per_hour": "13278.1366775908"
            },
            "miss_distance": {
                "astronomical": "0.0944033969",
                "lunar": "36.7229213941",
                "kilometers": "14122547.097004603",
                "miles": "8775343.8479774014"
            },
            "orbiting_body": "Earth"
        },
        {
            "close_approach_date": "2020-09-25",
            "close_approach_date_full": "2020-Sep-25 01:45",
            "epoch_date_close_approach": 1600998300000,
            "relative_velocity": {
                "kilometers_per_second": "15.3586060585",
                "kilometers_per_hour": "55290.9818105402",
                "miles_per_hour": "34355.6658922215"
            },
            "miss_distance": {
                "astronomical": "0.3746050804",
                "lunar": "145.7213762756",
                "kilometers": "56040122.119018748",
                "miles": "34821717.1802768024"
            },
            "orbiting_body": "Earth"
        }
    ],
    "orbital_data": {
        "orbit_id": "6",
        "orbit_determination_date": "2017-04-06 08:49:45",
        "first_observation_date": "2012-05-19",
        "last_observation_date": "2012-06-07",
        "data_arc_in_days": 19,
        "observations_used": 28,
        "orbit_uncertainty": "7",
        "minimum_orbit_intersection": ".0866473",
        "jupiter_tisserand_invariant": "4.761",
        "epoch_osculation": "2459000.5",
        "eccentricity": ".2682576716586032",
        "semi_major_axis": "1.376109661279125",
        "inclination": "8.40609368857066",
        "ascending_node_longitude": "54.50102769337455",
        "orbital_period": "589.6278558468691",
        "perihelion_distance": "1.006957687597478",
        "perihelion_argument": "249.9880427205023",
        "aphelion_distance": "1.745261634960772",
        "perihelion_time": "2459081.630160100627",
        "mean_anomaly": "310.4656075071679",
        "mean_motion": ".6105546005504441",
        "equinox": "J2000",
        "orbit_class": {
            "orbit_class_type": "APO",
            "orbit_class_description": "Near-Earth asteroid orbits which cross the Earth’s orbit similar to that of 1862 Apollo",
            "orbit_class_range": "a (semi-major axis) > 1.0 AU; q (perihelion) < 1.017 AU"
        }
    },
    "is_sentry_object": false
}